NORAD_CAT_ID,OBJECT_NAME,OBJECT_TYPE,EPOCH,MEAN_MOTION,ECCENTRICITY,INCLINATION,RA_OF_ASC_NODE,ARG_OF_PERICENTER,MEAN_ANOMALY,BSTAR,MEAN_MOTION_DOT,MEAN_MOTION_DDOT,TLE_LINE0,TLE_LINE1,TLE_LINE2,SEMIMAJOR_AXIS,PERIOD,APOGEE,PERIGEE,DECAYED
55751.0,STARLINK-5577,PAYLOAD,2023-08-28 20:04:56,14.98335222,0.0003483,69.9994,53.9089,276.4948,83.5814,8.8645e-05,9.65e-06,0.0,0 STARLINK-5577,1 55751U 23028L   23240.83675935  .00000965  00000-0  88645-4 0  9990,2 55751  69.9994  53.9089 0003483 276.4948  83.5814 14.98335222 27651,6950.177,96.107,574.462,569.621,0.0
55751.0,STARLINK-5577,PAYLOAD,2023-08-28 23:17:11,14.98336517,0.0003328,69.9993,53.5721,271.4688,88.6089,9.9524e-05,1.095e-05,0.0,0 STARLINK-5577,1 55751U 23028L   23240.97027777  .00001095  00000-0  99524-4 0  9993,2 55751  69.9993  53.5721 0003328 271.4688  88.6089 14.98336517 27673,6950.173,96.107,574.351,569.725,0.0
55751.0,STARLINK-5577,PAYLOAD,2023-08-29 10:30:08,14.98329299,0.0003253,69.9996,52.3938,271.7492,88.3294,5.5575e-05,5.7e-06,0.0,0 STARLINK-5577,1 55751U 23028L   23241.43760291  .00000570  00000-0  55575-4 0  9995,2 55751  69.9996  52.3938 0003253 271.7492  88.3294 14.98329299 27748,6950.195,96.107,574.321,569.799,0.0
55751.0,STARLINK-5577,PAYLOAD,2023-08-29 20:06:57,14.98329978,0.0003261,69.9996,51.3837,271.0546,89.0239,5.5863e-05,5.74e-06,0.0,0 STARLINK-5577,1 55751U 23028L   23241.83816263  .00000574  00000-0  55863-4 0  9994,2 55751  69.9996  51.3837 0003261 271.0546  89.0239 14.98329978 27805,6950.193,96.107,574.324,569.792,0.0
55751.0,STARLINK-5577,PAYLOAD,2023-08-30 13:44:25,14.98333622,0.0003323,69.9994,49.5327,268.8516,91.2262,1.7142e-05,1.12e-06,0.0,0 STARLINK-5577,1 55751U 23028L   23242.57252023  .00000112  00000-0  17142-4 0  9990,2 55751  69.9994  49.5327 0003323 268.8516  91.2262 14.98333622 27910,6950.182,96.107,574.356,569.737,0.0
55751.0,STARLINK-5577,PAYLOAD,2023-08-31 04:09:38,14.98332282,0.0003338,69.9997,48.0184,267.1229,92.9548,7.5485e-05,8.08e-06,0.0,0 STARLINK-5577,1 55751U 23028L   23243.17335885  .00000808  00000-0  75485-4 0  9991,2 55751  69.9997  48.0184 0003338 267.1229  92.9548 14.98332282 28004,6950.186,96.107,574.371,569.731,0.0
55751.0,STARLINK-5577,PAYLOAD,2023-09-01 17:00:43,14.98332378,0.0003427,69.9992,44.1453,268.5895,91.4871,4.3549e-05,4.27e-06,0.0,0 STARLINK-5577,1 55751U 23028L   23244.70883991  .00000427  00000-0  43549-4 0  9990,2 55751  69.9992  44.1453 0003427 268.5895  91.4871 14.98332378 28232,6950.186,96.107,574.432,569.669,0.0
55751.0,STARLINK-5577,PAYLOAD,2023-09-02 12:14:20,14.98329119,0.0003386,69.9997,42.1254,268.3322,91.7449,7.6527e-05,8.2e-06,0.0,0 STARLINK-5577,1 55751U 23028L   23245.50996114  .00000820  00000-0  76527-4 0  9990,2 55751  69.9997  42.1254 0003386 268.3322  91.7449 14.98329119 28357,6950.196,96.107,574.414,569.707,0.0
55751.0,STARLINK-5577,PAYLOAD,2023-09-02 17:02:43,14.98282912,0.0003222,70.0001,41.6198,262.7487,97.3306,0.00077453,9.15e-05,0.0,0 STARLINK-5577,1 55751U 23028L   23245.71022511  .00009150  00000-0  77453-3 0  9997,2 55751  70.0001  41.6198 0003222 262.7487  97.3306 14.98282912 28382,6950.339,96.11,574.443,569.964,0.0
55751.0,STARLINK-5577,PAYLOAD,2023-09-02 18:38:52,14.98332706,0.000297,70.0021,41.452,264.8028,95.2792,5.5747e-05,5.72e-06,0.0,0 STARLINK-5577,1 55751U 23028L   23245.77700087  .00000572  00000-0  55747-4 0  9996,2 55751  70.0021  41.4520 0002970 264.8028  95.2792 14.98332706 28398,6950.185,96.107,574.114,569.985,0.0
55751.0,STARLINK-5577,PAYLOAD,2023-09-02 20:15:00,14.98333443,0.0003011,70.0018,41.2835,272.3434,87.738,6.8502e-05,7.25e-06,0.0,0 STARLINK-5577,1 55751U 23028L   23245.84376051  .00000725  00000-0  68502-4 0  9997,2 55751  70.0018  41.2835 0003011 272.3434  87.7380 14.98333443 28403,6950.182,96.107,574.14,569.955,0.0
55751.0,STARLINK-5577,PAYLOAD,2023-09-03 10:40:13,14.98324114,0.0003229,70.0006,39.769,268.2827,91.7962,0.00030634,3.564e-05,0.0,0 STARLINK-5577,1 55751U 23028L   23246.44459642  .00003564  00000-0  30634-3 0  9990,2 55751  70.0006  39.7690 0003229 268.2827  91.7962 14.98324114 28497,6950.211,96.107,574.32,569.832,0.0
55751.0,STARLINK-5577,PAYLOAD,2023-09-03 20:17:01,14.98335762,0.0003351,70.0001,38.759,268.5578,91.5197,0.0001524,1.726e-05,0.0,0 STARLINK-5577,1 55751U 23028L   23246.84515321  .00001726  00000-0  15240-3 0  9995,2 55751  70.0001  38.7590 0003351 268.5578  91.5197 14.98335762 28558,6950.175,96.107,574.369,569.711,0.0
55751.0,STARLINK-5577,PAYLOAD,2023-09-04 09:06:06,14.98327486,0.0003302,70.0008,37.4124,268.8409,91.2372,7.3738e-05,7.87e-06,0.0,0 STARLINK-5577,1 55751U 23028L   23247.37923956  .00000787  00000-0  73738-4 0  9994,2 55751  70.0008  37.4124 0003302 268.8409  91.2372 14.98327486 28631,6950.201,96.107,574.361,569.771,0.0
55751.0,STARLINK-5577,PAYLOAD,2023-09-04 17:06:45,14.98347524,0.0003166,70.0005,36.5707,268.7967,91.2829,0.00019929,2.287e-05,0.0,0 STARLINK-5577,1 55751U 23028L   23247.71302254  .00002287  00000-0  19929-3 0  9992,2 55751  70.0005  36.5707 0003166 268.7967  91.2829 14.98347524 28688,6950.139,96.106,574.204,569.803,0.0
55751.0,STARLINK-5577,PAYLOAD,2023-09-05 02:43:31,14.98363823,0.0003609,70.0007,35.5607,272.6345,87.4401,0.00033967,3.966e-05,0.0,0 STARLINK-5577,1 55751U 23028L   23248.11356225  .00003966  00000-0  33967-3 0  9997,2 55751  70.0007  35.5607 0003609 272.6345  87.4401 14.98363823 28744,6950.088,96.105,574.462,569.445,0.0
55751.0,STARLINK-5577,PAYLOAD,2023-09-05 13:56:31,14.98324514,0.0003444,70.0004,34.3824,270.6198,89.4566,-0.00010901,-1.393e-05,0.0,0 STARLINK-5577,1 55751U 23028L   23248.58091598 -.00001393  00000-0 -10901-3 0  9994,2 55751  70.0004  34.3824 0003444 270.6198  89.4566 14.98324514 28816,6950.21,96.107,574.469,569.681,0.0
55751.0,STARLINK-5577,PAYLOAD,2023-09-06 09:10:08,14.98318375,0.0003352,70.0007,32.3627,271.3054,88.772,-6.7511e-06,-1.74e-06,0.0,0 STARLINK-5577,1 55751U 23028L   23249.38203995 -.00000174  00000-0 -67511-5 0  9996,2 55751  70.0007  32.3627 0003352 271.3054  88.7720 14.98318375 28930,6950.229,96.108,574.424,569.764,0.0
55751.0,STARLINK-5577,PAYLOAD,2023-09-06 18:46:56,14.9832293,0.0003267,70.0004,31.3522,270.6857,89.3928,2.8924e-05,2.52e-06,0.0,0 STARLINK-5577,1 55751U 23028L   23249.78259854  .00000252  00000-0  28924-4 0  9994,2 55751  70.0004  31.3522 0003267 270.6857  89.3928 14.98322930 28993,6950.215,96.107,574.35,569.809,0.0
55751.0,STARLINK-5577,PAYLOAD,2023-09-07 18:48:57,14.9832452,0.0003595,70.0011,28.8279,274.9418,85.1331,0.0002031,2.331e-05,0.0,0 STARLINK-5577,1 55751U 23028L   23250.78399360  .00002331  00000-0  20310-3 0  9993,2 55751  70.0011  28.8279 0003595 274.9418  85.1331 14.98324520 29142,6950.21,96.107,574.573,569.576,0.0
55751.0,STARLINK-5577,PAYLOAD,2023-09-08 14:02:35,14.98289153,0.000291,70.0011,26.808,264.4791,95.6036,0.00074508,8.799e-05,0.0,0 STARLINK-5577,1 55751U 23028L   23251.58513152  .00008799  00000-0  74508-3 0  9991,2 55751  70.0011  26.8080 0002910 264.4791  95.6036 14.98289153 29261,6950.319,96.11,574.207,570.162,0.0
55751.0,STARLINK-5577,PAYLOAD,2023-09-08 18:50:58,14.98329136,0.0003696,70.0014,26.305,272.3318,87.7418,8.6409e-05,9.38e-06,0.0,0 STARLINK-5577,1 55751U 23028L   23251.78539734  .00000938  00000-0  86409-4 0  9998,2 55751  70.0014  26.3050 0003696 272.3318  87.7418 14.98329136 29296,6950.196,96.107,574.629,569.492,0.0
55751.0,STARLINK-5577,PAYLOAD,2023-09-09 14:04:34,14.98331533,0.0003552,70.0015,24.2846,272.2989,87.7764,0.00015602,1.769e-05,0.0,0 STARLINK-5577,1 55751U 23028L   23252.58651464  .00001769  00000-0  15602-3 0  9991,2 55751  70.0015  24.2846 0003552 272.2989  87.7764 14.98331533 29413,6950.188,96.107,574.522,569.584,0.0
55751.0,STARLINK-5577,PAYLOAD,2023-09-09 18:52:58,14.98338282,0.0003409,70.0013,23.7783,270.6337,89.4431,0.00020718,2.38e-05,0.0,0 STARLINK-5577,1 55751U 23028L   23252.78678995  .00002380  00000-0  20718-3 0  9995,2 55751  70.0013  23.7783 0003409 270.6337  89.4431 14.98338282 29446,6950.167,96.106,574.402,569.663,0.0
55751.0,STARLINK-5577,PAYLOAD,2023-09-10 10:54:21,14.98306622,0.0003725,70.0014,22.095,274.7203,85.353,-0.00014723,-1.848e-05,0.0,0 STARLINK-5577,1 55751U 23028L   23253.45442107 -.00001848  00000-0 -14723-3 0  9993,2 55751  70.0014  22.0950 0003725 274.7203  85.3530 14.98306622 29542,6950.265,96.108,574.719,569.541,0.0
55751.0,STARLINK-5577,PAYLOAD,2023-09-10 14:06:38,14.98309082,0.0003537,70.0015,21.7585,272.1306,87.9448,-0.00011345,-1.446e-05,0.0,0 STARLINK-5577,1 55751U 23028L   23253.58794064 -.00001446  00000-0 -11345-3 0  9990,2 55751  70.0015  21.7585 0003537 272.1306  87.9448 14.98309082 29561,6950.258,96.108,574.581,569.664,0.0
55751.0,STARLINK-5577,PAYLOAD,2023-09-10 18:55:02,14.98312059,0.0003469,70.0018,21.2555,269.1663,90.9098,-0.00010015,-1.287e-05,0.0,0 STARLINK-5577,1 55751U 23028L   23253.78822050 -.00001287  00000-0 -10015-3 0  9995,2 55751  70.0018  21.2555 0003469 269.1663  90.9098 14.98312059 29598,6950.248,96.108,574.524,569.702,0.0
55751.0,STARLINK-5577,PAYLOAD,2023-09-11 10:56:21,14.98345209,0.0003362,70.0006,19.57,263.5271,96.5505,-0.00030811,-3.769e-05,0.0,0 STARLINK-5577,1 55751U 23028L   23254.45580805 -.00003769  00000-0 -30811-3 0  9992,2 55751  70.0006  19.5700 0003362 263.5271  96.5505 14.98345209 29691,6950.146,96.106,574.347,569.674,0.0
55751.0,STARLINK-5577,PAYLOAD,2023-09-11 14:08:38,14.98331471,0.0003306,70.0021,19.2346,263.2546,96.8237,6.3585e-05,6.66e-06,0.0,0 STARLINK-5577,1 55751U 23028L   23254.58932878  .00000666  00000-0  63585-4 0  9993,2 55751  70.0021  19.2346 0003306 263.2546  96.8237 14.98331471 29715,6950.188,96.107,574.351,569.756,0.0
55751.0,STARLINK-5577,PAYLOAD,2023-09-12 10:58:22,14.98348929,0.0003559,70.0034,17.046,265.154,94.9213,0.00083949,9.943e-05,0.0,0 STARLINK-5577,1 55751U 23028L   23255.45720375  .00009943  00000-0  83949-3 0  9999,2 55751  70.0034  17.0460 0003559 265.1540  94.9213 14.98348929 29840,6950.134,96.106,574.473,569.526,0.0
